{
  "links" : {
    "next" : "https://api.nasa.gov/neo/rest/v1/feed?start_date=2012-07-09&end_date=2012-07-09&detailed=true&api_key=t0TVs3DtDT2H8Oy2Zy8m2eVrNsAVKAexjcZXUckd",
    "prev" : "https://api.nasa.gov/neo/rest/v1/feed?start_date=2012-07-07&end_date=2012-07-07&detailed=true&api_key=t0TVs3DtDT2H8Oy2Zy8m2eVrNsAVKAexjcZXUckd",
    "self" : "https://api.nasa.gov/neo/rest/v1/feed?start_date=2012-07-08&end_date=2012-07-08&detailed=true&api_key=t0TVs3DtDT2H8Oy2Zy8m2eVrNsAVKAexjcZXUckd"
  },
  "element_count" : 8,
  "near_earth_objects" : {
    "2012-07-08" : [ {
      "links" : {
        "self" : "https://api.nasa.gov/neo/rest/v1/neo/3092201?api_key=t0TVs3DtDT2H8Oy2Zy8m2eVrNsAVKAexjcZXUckd"
      },
      "neo_reference_id" : "3092201",
      "name" : "(1998 VE31)",
      "nasa_jpl_url" : "http://ssd.jpl.nasa.gov/sbdb.cgi?sstr=3092201",
      "absolute_magnitude_h" : 20.9,
      "estimated_diameter" : {
        "kilometers" : {
          "estimated_diameter_min" : 0.1756123185,
          "estimated_diameter_max" : 0.3926810818
        },
        "meters" : {
          "estimated_diameter_min" : 175.6123184804,
          "estimated_diameter_max" : 392.6810818086
        },
        "miles" : {
          "estimated_diameter_min" : 0.1091204019,
          "estimated_diameter_max" : 0.2440006365
        },
        "feet" : {
          "estimated_diameter_min" : 576.1559189633,
          "estimated_diameter_max" : 1288.3238004408
        }
      },
      "is_potentially_hazardous_asteroid" : false,
      "close_approach_data" : [ {
        "close_approach_date" : "2012-07-08",
        "epoch_date_close_approach" : 1341730800000,
        "relative_velocity" : {
          "kilometers_per_second" : "12.5075375471",
          "kilometers_per_hour" : "45027.1351696928",
          "miles_per_hour" : "27978.1107391905"
        },
        "miss_distance" : {
          "astronomical" : "0.3522060659",
          "lunar" : "137.0081481934",
          "kilometers" : "52689276",
          "miles" : "32739598"
        },
        "orbiting_body" : "Earth"
      } ],
      "orbital_data" : {
        "orbit_id" : "18",
        "orbit_determination_date" : "2017-04-06 09:17:39",
        "orbit_uncertainty" : "2",
        "minimum_orbit_intersection" : ".121594",
        "jupiter_tisserand_invariant" : "5.771",
        "epoch_osculation" : "2458000.5",
        "eccentricity" : ".1901821346491189",
        "semi_major_axis" : "1.050674094965843",
        "inclination" : "21.94571231563619",
        "ascending_node_longitude" : "57.31398775766456",
        "orbital_period" : "393.3693007190216",
        "perihelion_distance" : ".8508546527647077",
        "perihelion_argument" : "219.4972743708693",
        "aphelion_distance" : "1.250493537166978",
        "perihelion_time" : "2458085.713681737371",
        "mean_anomaly" : "282.0149478635454",
        "mean_motion" : ".9151705517994735",
        "equinox" : "J2000"
      }
    }, {
      "links" : {
        "self" : "https://api.nasa.gov/neo/rest/v1/neo/3021049?api_key=t0TVs3DtDT2H8Oy2Zy8m2eVrNsAVKAexjcZXUckd"
      },
      "neo_reference_id" : "3021049",
      "name" : "(1999 NW2)",
      "nasa_jpl_url" : "http://ssd.jpl.nasa.gov/sbdb.cgi?sstr=3021049",
      "absolute_magnitude_h" : 23.2,
      "estimated_diameter" : {
        "kilometers" : {
          "estimated_diameter_min" : 0.0608912622,
          "estimated_diameter_max" : 0.1361570015
        },
        "meters" : {
          "estimated_diameter_min" : 60.8912622106,
          "estimated_diameter_max" : 136.1570015386
        },
        "miles" : {
          "estimated_diameter_min" : 0.0378360645,
          "estimated_diameter_max" : 0.0846040122
        },
        "feet" : {
          "estimated_diameter_min" : 199.7744887109,
          "estimated_diameter_max" : 446.7093369279
        }
      },
      "is_potentially_hazardous_asteroid" : false,
      "close_approach_data" : [ {
        "close_approach_date" : "2012-07-08",
        "epoch_date_close_approach" : 1341730800000,
        "relative_velocity" : {
          "kilometers_per_second" : "6.6574471753",
          "kilometers_per_hour" : "23966.8098309382",
          "miles_per_hour" : "14892.0435863405"
        },
        "miss_distance" : {
          "astronomical" : "0.0853420583",
          "lunar" : "33.198059082",
          "kilometers" : "12766990",
          "miles" : "7933040"
        },
        "orbiting_body" : "Earth"
      } ],
      "orbital_data" : {
        "orbit_id" : "36",
        "orbit_determination_date" : "2017-04-06 09:17:25",
        "orbit_uncertainty" : "0",
        "minimum_orbit_intersection" : ".0166586",
        "jupiter_tisserand_invariant" : "5.573",
        "epoch_osculation" : "2458000.5",
        "eccentricity" : ".1086593392330616",
        "semi_major_axis" : "1.116030906761442",
        "inclination" : "8.679528924007801",
        "ascending_node_longitude" : "289.550434320367",
        "orbital_period" : "430.6384064185135",
        "perihelion_distance" : ".9947637258690692",
        "perihelion_argument" : "53.00628562425536",
        "aphelion_distance" : "1.237298087653815",
        "perihelion_time" : "2457889.864641271000",
        "mean_anomaly" : "92.48763823385622",
        "mean_motion" : ".8359681687335059",
        "equinox" : "J2000"
      }
    }, {
      "links" : {
        "self" : "https://api.nasa.gov/neo/rest/v1/neo/3157028?api_key=t0TVs3DtDT2H8Oy2Zy8m2eVrNsAVKAexjcZXUckd"
      },
      "neo_reference_id" : "3157028",
      "name" : "(2003 MK4)",
      "nasa_jpl_url" : "http://ssd.jpl.nasa.gov/sbdb.cgi?sstr=3157028",
      "absolute_magnitude_h" : 20.9,
      "estimated_diameter" : {
        "kilometers" : {
          "estimated_diameter_min" : 0.1756123185,
          "estimated_diameter_max" : 0.3926810818
        },
        "meters" : {
          "estimated_diameter_min" : 175.6123184804,
          "estimated_diameter_max" : 392.6810818086
        },
        "miles" : {
          "estimated_diameter_min" : 0.1091204019,
          "estimated_diameter_max" : 0.2440006365
        },
        "feet" : {
          "estimated_diameter_min" : 576.1559189633,
          "estimated_diameter_max" : 1288.3238004408
        }
      },
      "is_potentially_hazardous_asteroid" : true,
      "close_approach_data" : [ {
        "close_approach_date" : "2012-07-08",
        "epoch_date_close_approach" : 1341730800000,
        "relative_velocity" : {
          "kilometers_per_second" : "14.3524465577",
          "kilometers_per_hour" : "51668.8076077776",
          "miles_per_hour" : "32104.9877049549"
        },
        "miss_distance" : {
          "astronomical" : "0.1672596699",
          "lunar" : "65.0640106201",
          "kilometers" : "25021690",
          "miles" : "15547757"
        },
        "orbiting_body" : "Earth"
      } ],
      "orbital_data" : {
        "orbit_id" : "36",
        "orbit_determination_date" : "2017-04-06 09:14:01",
        "orbit_uncertainty" : "0",
        "minimum_orbit_intersection" : ".002686",
        "jupiter_tisserand_invariant" : "5.645",
        "epoch_osculation" : "2458000.5",
        "eccentricity" : ".1813074742198211",
        "semi_major_axis" : "1.080358900910442",
        "inclination" : "22.31610577352589",
        "ascending_node_longitude" : "282.6096056123453",
        "orbital_period" : "410.1573593775723",
        "perihelion_distance" : ".8844817573354675",
        "perihelion_argument" : "109.6056454321734",
        "aphelion_distance" : "1.276236044485416",
        "perihelion_time" : "2457844.766055641444",
        "mean_anomaly" : "136.6895380206257",
        "mean_motion" : ".8777119117070389",
        "equinox" : "J2000"
      }
    } ]
  }
}